COSMOS 1933             
1 18958U 88020A   26003.12155002  .00007965  00000+0  39762-3 0  9992
2 18958  82.5152 315.7497 0006177  74.2247 285.9667 15.17337879 40287
SL-3 R/B                
1 19046U 88032B   26003.14113306  .00009044  00000+0  43069-3 0  9992
2 19046  97.5095 346.7184 0028444 101.6719 258.7710 15.19005700 42157
SL-16 R/B               
1 19120U 88039B   26003.02699292  .00000273  00000+0  15165-3 0  9993
2 19120  71.0133 207.3891 0019553  79.7087 280.6242 14.19601682949061
COSMOS 1953             
1 19210U 88050A   25363.34859606  .00008063  00000+0  30114-3 0  9992
2 19210  82.5080 228.9139 0012535  18.6006 341.5688 15.27141359 27045
SL-8 R/B                
1 19257U 88053B   26003.03262328  .00000486  00000+0  16608-3 0  9996
2 19257  74.0462 233.4772 0019014  69.5912  35.6236 14.38874870967157
COSMOS 1975             
1 19573U 88093A   26003.01772714  .00011316  00000+0  42702-3 0  9992
2 19573  82.5187 183.5221 0012553  45.3760 314.8500 15.26830715  9380
SL-14 R/B               
1 19574U 88093B   26003.01331648  .00001002  00000+0  11275-3 0  9992
2 19574  82.5320 103.7047 0019315 254.4028 278.7897 14.85578424991289
SL-16 R/B               
1 19650U 88102B   26003.14357370 -.00000164  00000+0 -58523-4 0  9990
2 19650  71.0003 289.4084 0011951 114.9932 245.2434 14.16142267917617
INTERCOSMOS 24          
1 20261U 89080A   26003.11428780  .00000880  00000+0  25025-3 0  9990
2 20261  82.6068 147.0579 1188897  84.9570 288.5849 12.59475634658549
SL-14 R/B               
1 20262U 89080C   26003.10557898  .00000535  00000+0  16019-3 0  9993
2 20262  82.5913 215.3028 1230164 334.7598  19.7909 12.50431834651951
DELTA 1 R/B             
1 20323U 89089B   26003.09224198  .00000739  00000+0  19174-3 0  9993
2 20323  97.0740 220.9449 0068401 331.0617  28.6795 14.50594379886229
ARIANE 40 R/B           
1 20443U 90005H   26003.14339727  .00000625  00000+0  21267-3 0  9997
2 20443  98.3211  65.7134 0010790  46.7679 313.4409 14.39817887883370
